JINJUSAT-1B             
1 63210U 25052A   26068.66363707  .00019955  00000+0  68430-3 0  9998
2 63210  97.4113 325.4613 0005550  82.1930 277.9941 15.30194857 54866
STARLINK-33794          
1 63820U 25092S   26068.30477631  .00031429  00000+0  11457-2 0  9998
2 63820  42.9993 174.9040 0001633 276.8561  83.2105 15.27611759 48555
